[ {"name": "STARLINK-6210", "line1": "1 56485U 23064AP  26199.13801232 -.00003020  00000+0 -24531-3 0  9994", "line2": "2 56485  70.0000 155.3669 0003156 261.8051  98.2750 14.98341547175280"}, {"name": "STARLINK-6196", "line1": "1 56487U 23064AR  26199.12109565  .00001013  00000+0  92737-4 0  9997", "line2": "2 56487  70.0001 135.4444 0002952 264.9908  95.0914 14.98320078175778"}, {"name": "STARLINK-6204", "line1": "1 56488U 23064AS  26199.22959537 -.00000236  00000+0 -11992-4 0  9993", "line2": "2 56488  70.0000 135.4180 0002854 268.2089  91.8743 14.98327928175789"}, {"name": "STARLINK-5923", "line1": "1 56489U 23064AT  26199.21706713  .00000410  00000+0  42180-4 0  9994", "line2": "2 56489  70.0002 135.3739 0002680 268.7339  91.3513 14.98332256175781"}, {"name": "STARLINK-5873", "line1": "1 56490U 23064AU  26199.23793928 -.00001497  00000+0 -11773-3 0  9993", "line2": "2 56490  70.0001 135.4461 0002989 265.2047  94.8771 14.98322557175782"}, {"name": "STARLINK-5842", "line1": "1 56491U 23064AV  26199.27965704 -.00000287  00000+0 -16231-4 0  9992", "line2": "2 56491  70.0003 135.1904 0002793 267.8978  92.1861 14.98327913175791"}, {"name": "STARLINK-5846", "line1": "1 56492U 23064AW  26199.14197179  .00000666  00000+0  63620-4 0  9995", "line2": "2 56492  70.0000 135.5122 0002926 270.9017  89.1807 14.98322110175770"}, {"name": "STARLINK-5841", "line1": "1 56493U 23064AX  26199.19597572  .00000030  00000+0  10329-4 0  9995", "line2": "2 56493  70.0003 115.4184 0002733 270.5873  89.4973 14.98330199176270"}, {"name": "STARLINK-5530", "line1": "1 56494U 23064AY  26199.14213187  .00000573  00000+0  55792-4 0  9993", "line2": "2 56494  70.0002 135.5131 0002848 271.0164  89.0669 14.98322487175763"}, {"name": "STARLINK-5529", "line1": "1 56495U 23064AZ  26199.13361367 -.00000218  00000+0 -10466-4 0  9994", "line2": "2 56495  70.0006 135.4838 0002840 272.7916  87.2918 14.98329292175775"}, {"name": "STARLINK-5526", "line1": "1 56496U 23064BA  26199.12943304  .00000051  00000+0  12063-4 0  9999", "line2": "2 56496  70.0004 135.4693 0004069 264.0744  95.9951 14.98334336175779"}, {"name": "STARLINK-5527", "line1": "1 56497U 23064BB  26199.25894860 -.00002876  00000+0 -23327-3 0  9999", "line2": "2 56497  70.0000 135.1187 0003077 265.2421  94.8386 14.98337671175791"}, {"name": "STARLINK-5522", "line1": "1 56498U 23064BC  26199.13779826  .00000487  00000+0  48587-4 0  9991", "line2": "2 56498  70.0001 135.4981 0002737 268.5188  91.5657 14.98327919175773"}, {"name": "STARLINK-5775", "line1": "1 56503U 23065A   26198.49181337 -.00001203  00000+0 -34222-4 0  9991", "line2": "2 56503  42.9994 199.2350 0001603 265.8873  94.1796 15.27569858176451"}, {"name": "STARLINK-5716", "line1": "1 56504U 23065B   26199.29059412  .00000430  00000+0  25182-4 0  9993", "line2": "2 56504  43.0011 194.9065 0001489 272.7055  87.3626 15.27560878176572"}, {"name": "STARLINK-5763", "line1": "1 56505U 23065C   26199.05474080 -.00000553  00000+0 -10588-4 0  9992", "line2": "2 56505  43.0042 196.5753 0001472 279.4400  80.6285 15.27573567176531"}, {"name": "STARLINK-5340", "line1": "1 56506U 23065D   26199.29830777  .00000230  00000+0  17887-4 0  9997", "line2": "2 56506  43.0022 183.6519 0001501 267.5272  92.5408 15.27574031176700"}, {"name": "STARLINK-5333", "line1": "1 56507U 23065E   26199.25107000  .00000032  00000+0  10687-4 0  9991", "line2": "2 56507  43.0015 162.3843 0001222 267.5261  92.5451 15.27575217176946"}, {"name": "STARLINK-5335", "line1": "1 56508U 23065F   26198.47768323  .00001000  00000+0  45870-4 0  9994", "line2": "2 56508  43.0016 199.1242 0001642 271.0677  88.9987 15.27588285176454"}, {"name": "STARLINK-5334", "line1": "1 56509U 23065G   26199.27389036  .00000620  00000+0  32049-4 0  9995", "line2": "2 56509  43.0010 194.7759 0001119 270.6710  89.4013 15.27576614176577"}, {"name": "STARLINK-5339", "line1": "1 56510U 23065H   26199.26617789 -.00000365  00000+0 -37377-5 0  9993", "line2": "2 56510  43.0015 194.7261 0001585 273.2245  86.8425 15.27569920176571"}, {"name": "STARLINK-5351", "line1": "1 56511U 23065J   26199.28030584 -.00000543  00000+0 -10229-4 0  9992", "line2": "2 56511  43.0011 194.8199 0001139 268.3430  91.7292 15.27572002176577"}, {"name": "STARLINK-5349", "line1": "1 56512U 23065K   26198.48538565  .00000084  00000+0  12573-4 0  9998", "line2": "2 56512  43.0015 199.1732 0001257 269.7192  90.3516 15.27576416176458"}, {"name": "STARLINK-5329", "line1": "1 56513U 23065L   26199.02261401 -.00000423  00000+0 -58558-5 0  9995", "line2": "2 56513  43.0005 196.3299 0001016 271.6655  88.4081 15.27575367176532"}, {"name": "STARLINK-5348", "line1": "1 56515U 23065N   26198.69954110 -.00000006  00000+0  92963-5 0  9999", "line2": "2 56515  43.0007 198.2030 0000783 270.3409  89.7353 15.27559726176484"}, {"name": "STARLINK-5342", "line1": "1 56516U 23065P   26199.01618788 -.00000281  00000+0 -69902-6 0  9999", "line2": "2 56516  43.0016 196.2839 0001277 273.2903  86.7803 15.27574733176538"}, {"name": "STARLINK-5345", "line1": "1 56517U 23065Q   26199.03804967 -.00002128  00000+0 -67873-4 0  9993", "line2": "2 56517  43.0015 196.4378 0001183 311.0591  49.0159 15.27558765176531"}, {"name": "STARLINK-5346", "line1": "1 56518U 23065R   26199.03032331 -.00000723  00000+0 -16746-4 0  9994", "line2": "2 56518  43.0011 196.3849 0001160 280.6230  79.4491 15.27574244176532"}, {"name": "STARLINK-6313", "line1": "1 56519U 23065S   26199.04445932  .00000146  00000+0  14823-4 0  9992", "line2": "2 56519  43.0034 196.4807 0001065 285.0423  75.0310 15.27586695176535"}, {"name": "STARLINK-6344", "line1": "1 56520U 23065T   26199.29572391 -.00000274  00000+0 -44832-6 0  9990", "line2": "2 56520  43.0019 194.9337 0001268 274.9592  85.1115 15.27573961176571"}, {"name": "STARLINK-6333", "line1": "1 56521U 23065U   26199.30807776 -.00000438  00000+0 -63970-5 0  9996", "line2": "2 56521  43.0030 198.4257 0000727 280.1447  79.9323 15.27574790176531"}, {"name": "STARLINK-6327", "line1": "1 56522U 23065V   26199.04059957 -.00000145  00000+0  42637-5 0  9999", "line2": "2 56522  43.0016 196.4483 0001285 273.9694  86.1010 15.27574704176537"}, {"name": "STARLINK-6328", "line1": "1 56523U 23065W   26198.47397106 -.00000745  00000+0 -17555-4 0  9994", "line2": "2 56523  43.0024 199.9418 0001431 261.0040  99.0650 15.27570035176445"}, {"name": "STARLINK-6323", "line1": "1 56524U 23065X   26199.05601995  .00000327  00000+0  21424-4 0  9998", "line2": "2 56524  43.0024 196.5716 0001969 275.2930  84.7697 15.27579298176533"}, {"name": "STARLINK-6329", "line1": "1 56525U 23065Y   26199.02513077  .00000602  00000+0  31424-4 0  9996", "line2": "2 56525  43.0014 207.4083 0001769 272.0022  88.0627 15.27576264176403"}, {"name": "STARLINK-6317", "line1": "1 56526U 23065Z   26199.05987698 -.00000419  00000+0 -56962-5 0  9997", "line2": "2 56526  43.0038 196.6009 0001670 269.4330  90.6330 15.27581812176539"}, {"name": "STARLINK-6335", "line1": "1 56527U 23065AA  26199.04781996 -.00001227  00000+0 -35062-4 0  9995", "line2": "2 56527  43.0041 199.9078 0001341 288.5408  71.5298 15.27574028176496"}, {"name": "STARLINK-6337", "line1": "1 56528U 23065AB  26199.04010717 -.00000245  00000+0  61877-6 0  9995", "line2": "2 56528  42.9992 199.8499 0000568 234.8360 125.2439 15.27575356176496"}, {"name": "STARLINK-6307", "line1": "1 56529U 23065AC  26198.98550997  .00000536  00000+0  29006-4 0  9995", "line2": "2 56529  43.0007 185.6001 0001209 258.2293 101.8423 15.27587657176654"}, {"name": "STARLINK-6318", "line1": "1 56530U 23065AD  26199.26812761  .00000855  00000+0  40612-4 0  9999", "line2": "2 56530  43.0018 169.5526 0001231 267.1989  92.8722 15.27567405176860"}, {"name": "STARLINK-6280", "line1": "1 56531U 23065AE  26199.00912856 -.00000357  00000+0 -34587-5 0  9992", "line2": "2 56531  43.0047 182.3664 0001591 279.0855  80.9816 15.27574498176695"}, {"name": "STARLINK-6319", "line1": "1 56532U 23065AF  26199.00143079  .00000523  00000+0  28531-4 0  9990", "line2": "2 56532  43.0025 182.3039 0000570 284.3831  75.6957 15.27579690176693"}, {"name": "STARLINK-6310", "line1": "1 56533U 23065AG  26198.98728727 -.00001138  00000+0 -31833-4 0  9990", "line2": "2 56533  43.0000 182.2001 0000538 261.0549  99.0242 15.27580682176697"}, {"name": "STARLINK-6308", "line1": "1 56534U 23065AH  26199.00527189 -.00000365  00000+0 -37571-5 0  9991", "line2": "2 56534  43.0026 182.3366 0001243 283.8831  76.1882 15.27575228176697"}, {"name": "STARLINK-6309", "line1": "1 56535U 23065AJ  26199.31435308 -.00000380  00000+0 -43003-5 0  9991", "line2": "2 56535  43.0012 208.9446 0001059 262.2022  97.8709 15.27573969176413"}, {"name": "STARLINK-6312", "line1": "1 56536U 23065AK  26199.32849567  .00000350  00000+0  22250-4 0  9994", "line2": "2 56536  43.0007 209.0522 0001099 277.7179  82.3548 15.27567213176418"}, {"name": "STARLINK-6311", "line1": "1 56537U 23065AL  26199.05665980 -.00000534  00000+0 -98908-5 0  9990", "line2": "2 56537  43.0013 210.4509 0001000 271.2982  88.7755 15.27574382176370"}, {"name": "STARLINK-6314", "line1": "1 56538U 23065AM  26198.40266216 -.00000702  00000+0 -15981-4 0  9994", "line2": "2 56538  43.0014 185.5505 0000971 271.9038  88.1703 15.27571863176609"}, {"name": "STARLINK-6135", "line1": "1 56539U 23065AN  26199.07465084 -.00000717  00000+0 -16554-4 0  9996", "line2": "2 56539  43.0018 210.5845 0000753 294.8380  65.2393 15.27573582176377"}, {"name": "STARLINK-6136", "line1": "1 56540U 23065AP  26199.07850234 -.00000363  00000+0 -36744-5 0  9994", "line2": "2 56540  43.0022 210.6115 0001262 290.3373  69.7343 15.27574988176379"}, {"name": "STARLINK-6249", "line1": "1 56541U 23065AQ  26199.03416622  .00000669  00000+0  33826-4 0  9994", "line2": "2 56541  43.0008 207.7264 0001580 267.5477  92.5194 15.27581433176405"}, {"name": "STARLINK-6266", "line1": "1 56542U 23065AR  26198.48232742  .00000436  00000+0  25354-4 0  9991", "line2": "2 56542  43.0012 213.8752 0000915 285.9341  74.1410 15.27570908176284"}]